Account Name,Account ID,ESI ID,Address,City,State,Zip (9 digits)
CHIMNEY ROCK PILGRAM INC,101207082152,,1901 S SHEPHERD DR,HOUSTON,TX,
CHIMNEY ROCK PILGRIM INC,238057160301,,1857 RICHMOND AVE A,HOUSTON,TX,
PILGRIM CLEANER INC #118,151858369732,,6454 HIGHWAY 6 N,HOUSTON,TX,
PILGRIM CLEANERS,238048232201,,5856 SAN FELIPE ST,HOUSTON,TX,
PILGRIM CLEANERS,238081234301,,16702 STUEBNER AIRLINE RD A,SPRING,TX,
PILGRIM CLEANERS,238081718201,,3361 WESTPARK DR,HOUSTON,TX,
PILGRIM CLEANERS,238098822001,,13429 BRIAR FOREST DR,HOUSTON,TX,
PILGRIM CLEANERS INC,081853978888,,10154 JONES RD,HOUSTON,TX,
PILGRIM CLEANERS INC,141296001704,,4005 N BRAESWOOD BLVD,HOUSTON,TX,
PILGRIM CLEANERS INC,151184092551,,12442 MEMORIAL DR,HOUSTON,TX,
PILGRIM CLEANERS INC,171271610941,,8631 BEECHNUT ST #A,HOUSTON,TX,
PILGRIM CLEANERS INC,357861862518,,19725 SAUMS RD,HOUSTON,TX,
PILGRIM CLEANERS INC #100,081853976252,,9591 JONES RD,HOUSTON,TX,
PILGRIM CLEANERS INC #103,101874779352,,14501 MEMORIAL DR #B,HOUSTON,TX,
PILGRIM CLEANERS INC #105,101874718052,,777 1/2 DAIRY ASHFORD ST,HOUSTON,TX,
PILGRIM CLEANERS INC #105,238009025403,,753 DAIRY ASHFORD ST,HOUSTON,TX,
PILGRIM CLEANERS INC #108,061876322049,,8610 MEMORIAL DR,HOUSTON,TX,
PILGRIM CLEANERS INC #116,238009615301,,3725 HIGHWAY 6,SUGAR LAND,TX,
PILGRIM CLEANERS INC #126,238036563401,,3212 FM 1960 W,HOUSTON,TX,
PILGRIM CLEANERS INC #127,238049474001,,15950 LEXINGTON BLVD,SUGAR LAND,TX,
PILGRIM CLEANERS INC #128,238053684301,,650 WEST BOUGH LN #116,HOUSTON,TX,
PILGRIM CLEANERS INC #132,121260375941,,4729 RICHMOND AVE,HOUSTON,TX,
PILGRIM CLEANERS INC #134,121260642104,,3725 W ALABAMA ST,HOUSTON,TX,
PILGRIM CLEANERS INC #139,121262420084,,2402 BOLSOVER,HOUSTON,TX,
PILGRIM CLEANERS INC #141,238050220701,,5201 RICHMOND AVE C,HOUSTON,TX,
PILGRIM CLEANERS INC #142,425640082404,,708 W MAIN,TOMBALL,TX,
PILGRIM CLEANERS INC #144,141297809704,,2401 W HOLCOMBE BLVD,HOUSTON,TX,
PILGRIM CLEANERS INC #145,238052662602,,916 MAGNOLIA,MAGNOLIA,TX,
PILGRIM CLEANERS INC #147,238062627201,,13113 LOUETTA RD,CYPRESS,TX,
PILGRIM CLEANERS INC #148,238061823801,,5740 NEW TERRITORY BLVD,SUGAR LAND,TX,
PILGRIM CLEANERS INC #15,091906674241,,11322 FONDREN RD,HOUSTON,TX,
PILGRIM CLEANERS INC #152,101205370503,,1330 LOUISIANA,HOUSTON,TX,
PILGRIM CLEANERS INC #156,238077329301,,10555 WESTHEIMER RD G,HOUSTON,TX,
PILGRIM CLEANERS INC #2,161911720331,,6305 HIGHWAY 6,MISSOURI CITY,TX,
PILGRIM CLEANERS INC #28,101862899088,,1896 BARKER CYPRESS RD,HOUSTON,TX,
PILGRIM CLEANERS INC #31,238078979401,,8584 WESTHEIMER RD,HOUSTON,TX,
PILGRIM CLEANERS INC #34,061891061508,,9535 WESTHEIMER RD,HOUSTON,TX,
PILGRIM CLEANERS INC #37,061890331828,,2906 FOUNTAIN VIEW DR,HOUSTON,TX,
PILGRIM CLEANERS INC #38,238096849801,,4001 BELLAIRE BLVD B,HOUSTON,TX,
PILGRIM CLEANERS INC #4,061890664155,,6415 SAN FELIPE ST #1Q,HOUSTON,TX,
PILGRIM CLEANERS INC #4,061890664361,,6415 SAN FELIPE ST #Q,HOUSTON,TX,
PILGRIM CLEANERS INC #48,121891599501,,11150 WESTHEIMER RD,HOUSTON,TX,
PILGRIM CLEANERS INC #49,121891581488,,736 WILCREST DR,HOUSTON,TX,
PILGRIM CLEANERS INC #500,231000626444,,3806 ARTDALE ST,HOUSTON,TX,
PILGRIM CLEANERS INC #51,238100702801,,2821 DULLES,MISSOURI CITY,TX,
PILGRIM CLEANERS INC #52,091904651981,,11735 S KIRKWOOD #B,STAFFORD,TX,
PILGRIM CLEANERS INC #53,131911948452,,2422 CARTWRIGHT,MISSOURI CITY,TX,
PILGRIM CLEANERS INC #7,141295469211,,4798 BEECHNUT ST,HOUSTON,TX,
PILGRIM CLEANERS INC #72,161910941071,,5306 W BELLFORT ST,HOUSTON,TX,
PILGRIM CLEANERS INC #74,238056095301,,72 BRAESWOOD SQ B,HOUSTON,TX,
PILGRIM CLEANERS INC #77,91306100371,,10533 1/2 S POST OAK,HOUSTON,TX,
PILGRIM CLEANERS INC #82,238030061101,,11114 1/2 CYPRESS N HOUSTON RD,HOUSTON,TX,
PILGRIM CLEANERS INC #82,335854230778,,11114 CYPRESS N HOUSTON RD,HOUSTON,TX,
PILGRIM CLEANERS INC #87,081853605084,,7322 SENATE,HOUSTON,TX,
PILGRIM CLEANERS INC #88,081853075302,,6747 FAIRBANKS N HOUSTON RD,HOUSTON,TX,
PILGRIM CLEANERS INC #89,238055174501,,6978 FM 1960 W C,HOUSTON,TX,
PILGRIM CLEANERS INC #97,497879878051,,20059 KATY FWY #A,KATY,TX,
PILGRIM CLEANERS INC 142,425640082412,,708 W MAIN #1,TOMBALL,TX,
PILGRIM CLEARNERS INC #14,091904597131,,10816 W BELLFORT ST,HOUSTON,TX,
PILGRIM LAUNDRAY CO #55,091905749581,,8690 W BELLFORT ST,HOUSTON,TX,
PILGRIM LAUNDRY,121891939848,,12971 WESTHEIMER RD,HOUSTON,TX,
PILGRIM LAUNDRY,121892038588,,1726 S DAIRY ASHFORD,HOUSTON,TX,
PILGRIM LAUNDRY CLEANERS #01,387864155908,,1775 MASON,KATY,TX,
PILGRIM LAUNDRY CLEANERS #94,487873497951,,803 S MASON #460,KATY,TX,
PILGRIM LAUNDRY CO,141294800118,,9101 HILLCROFT ST,HOUSTON,TX,
PILGRIM LAUNDRY CO,141903599971,,12141 BISSONNET ST,HOUSTON,TX,
PILGRIM LAUNDRY CO #10,061890628642,,2538 BRIAR RIDGE #A,HOUSTON,TX,
PILGRIM LAUNDRY CO #10,061890628823,,2540 BRIAR RIDGE,HOUSTON,TX,
PILGRIM LAUNDRY CO #11,171265021641,,6701 CHIMNEY ROCK RD,BELLAIRE,TX,
PILGRIM LAUNDRY CO #123,061209838658,,3951 SAN FELIPE ST,HOUSTON,TX,
PILGRIM LAUNDRY CO #133,121260558955,,3762 RICHMOND AVE,HOUSTON,TX,
PILGRIM LAUNDRY CO #40,238059918201,,6385 WOODWAY DR,HOUSTON,TX,
PILGRIM LAUNDRY CO 154,238087718901,,1526 W GRAND PKY S,KATY,TX,
PILGRIM LAUNDRY CO INC,011575649004,,8242 LOUETTA RD,SPRING,TX,
PILGRIM LAUNDRY CO INC,325854060681,,11202 HUFFMEISTER RD #L,HOUSTON,TX,
PILGRIM LAUNDRY CO INC,365506295803,,202 SAWDUST #103,SPRING,TX,
PILGRIM LAUNDRY CO INC #130,238038330302,,208 CYPRESSWOOD DR,SPRING,TX,
PILGRIM LAUNDRY CO INC #131,238054606301,,18426 KUYKENDAHL RD,SPRING,TX,
PILGRIM LAUNDRY CO INC #150,238063932301,,24419 KUYKENDAHL RD B,TOMBALL,TX,
PILGRIM LAUNDRY CO INC #29,051846233259,,13605 VETERANS MEMORIAL DR,HOUSTON,TX,
PILGRIM SUITE B,171264080772,,6725 1/2 STELLA LINK,HOUSTON,TX,
PILGRIMS CLEANERS INC #125,238033456801,,7554 HIGHWAY 6 N,HOUSTON,TX,
