County,Legal Name of Newspaper,Mailing Address,Street Address,City,State,ZIP,Phone
Aitkin,Aitkin Independent Age,,213 Minnesota Ave N,Aitkin,MN,56431,218-927-3761
Anoka,Anoka County Record,PO Box 21014 Columbia Heights MN 55421,7956 Main Str NE,Fridley,MN,55432,763-220-0411
Anoka,Anoka County Union,,4101 Coon Rapids Blvd,Coon Rapids,MN,55433,763-421-4444
Anoka,Blaine-Spring Lake Park Life,,4101 Coon Rapids Blvd,Coon Rapids,MN,55433,763-421-4444
Anoka,Columbia Heights & Fridley Sun,,10917 Valley View Rd,Eden Prairie,MN,55344,952-392-6829
Anoka,Coon Rapids Herald,,4101 Coon Rapids Blvd,Coon Rapids,MN,55433,763-421-4444
Becker,Becker County Record,,511 Washington Ave,Detroit Lakes,MN,56501-,218-847-3151
Becker,Detroit Lakes Tribune,,511 Washington Ave,Detroit Lakes,MN,56501,218-847-3151
Becker,Frazee-Vergas Forum,,112 W Main Ave,Frazee,MN,56544,218-334-3566
Beltrami,The American,,1320 Nelson Ave SE,Bemidji,MN,56601,218-333-9200
Beltrami,The Bemidji Pioneer,,1320 Neilson Ave SE,Bemidji,MN,56601,218-333-9200
Beltrami,The Midwest Buy Line,,522 Beltrami Ave #100,Bemidji,MN,56601,218-759-1139
Benton,"Benton County News, LLC",PO Box 187,220 Broadway Ave N,Foley,MN,56329-0187,320-968-7220
Benton,Sauk Rapids Herald,,7 2nd Ave S,Sauk Rapids,MN,56379,320-251-1971
Big Stone,The Ortonville Independent,,789 US Hwy 75,Ortonville,MN,56278,320-839-6163
Blue Earth,Lake Crystal Tribune,PO Box 240,101 W Humphrey Str,Lake Crystal,MN,56055,507-726-2133
Blue Earth,Lake Region Times,PO Bx 128,513 Main Str,Madison Lake,MN,56063-0128,507-243-3031
Blue Earth,Maple River Messenger,Box 425,309 Main Str NE,Mapleton,MN,56065,507-524-3212
Blue Earth,The Free Press,,418 S 2nd Str,Mankato,MN,56001,507-625-4451
Brown,Sleepy Eye Herald-Dispatch,,119 E Main Str,Sleepy Eye,MN,56085,507-794-3511
Brown,Springfield Advance-Press,,13 S Marshall Ave,Springfield,MN,56087,507-723-4225
Brown,The Journal,,303 N Minnesota Str,New Ulm,MN,56073,507-359-2911
Carlton,MOOSE LAKE STAR GAZETTE,,103 Elm Ave,Moose Lake,MN,55767,218-245-2368
Carlton,Pine Journal,,122 Avenue C,Cloquet,MN,55720-1546,218-879-1950
Carver,Carver County News Newspaper,PO Box 188,130 Lewis Ave S,Watertown,MN,55388,952-955-1111
Carver,Chanhassen Villager,,123 W Second Str,Chaska,MN,55318,952-445-3333
Carver,Chaska Herald,PO Box 113,123 W 2nd Str,Chaska,MN,55318,952-445-3333
Carver,Norwood/Young America Times,PO Box 10,217 Main Str E,Norwood Young America,MN,55397,952-467-2271
Carver,The Waconia Patriot,PO Box 5,8 Elm Str S,Waconia,MN,55387,952-442-4414
Cass,Cass Lake Times,Box 398,128 2nd Str NW,Cass Lake,MN,56633,218-335-2290
Cass,Pilot-Independent,PO Box 190,408 Minnesota Ave,Walker,MN,56484,218-547-1000
Cass,Pine Cone Press-Citizen,PO Box 401,166 Hardy Ln #100,Longville,MN,56655,218-363-2002
Cass,The Northland Press Inc,PO Box 145,2220 Peninsula Rd NE,Outing,MN,56662,218-792-5842 or 218-692-5842
Chippewa,Clara City Herald,,34 E Center Ave,Clara City,MN,56222,320-847-3130
Chippewa,Montevideo American-News,PO Box 99,223 S 1st Str,Montevideo,MN,56265-0099,320-269-2156
Chisago,Chisago County Press,,12631 Lake Blvd,Lindstrom,MN,55045,651-257-5115
Chisago,ECM Post Review,PO Box 358,6448 Main Str,North Branch,MN,55056,651-674-7025
Clay,Clay County Union,Box 248,112 2nd Ave E,Ulen,MN,56585-,218-596-8813
Clay,Lake Park Journal,,119 6th Str PO Box 709,Hawley,MN,56549-0709,218-483-3306
Clay,Record-Review,PO Box 70,424 Front Str S,Barnesville,MN,56514,218-354-2606
Clay,The Extra,,810 4th Ave S #120,Moorhead,MN,56561,712-472-2525
Clay,The Forum of Fargo-Moorhead,,101 5th Str N,Fargo,ND,58104,701-235-7311
Clay,The Hawley Herald,,119 6th Str PO Box 709,Hawley,MN,56549-0709,218-483-3306
Clearwater,Farmers Independent,PO Box 130,102 N Main Ave,Bagley,MN,56621,218-694-6265
Clearwater,Leader-Record,,239 2nd Ave,Gonvick,MN,56644,218-487-5225
Cook,Cook County News-Herald,PO Bx 757,15 1st Ave W,Grand Marais,MN,55604-0321,218-387-9100
Cottonwood,Cottonwood County Citizen,,260 10th Str,Windom,MN,56101,507-831-3455
Cottonwood,Observer/Advocate,,237 11th Str N,Mountain Lake,MN,56159,507-831-3455
Cottonwood,Sentinel Tribune,,611 1st Ave,Westbrook,MN,56183,507-274-6136
Crow Wing,Brainerd Dispatch,,506 James Str,Brainerd,MN,56401,218-829-4705
Crow Wing,Crosby-Ironton Courier,PO Box 67,12 E Main Str,Crosby,MN,56441,218-546-5029
Crow Wing,Echo Journal,PO Box 974,506 James Str,Brainerd,MN,56401,218-829-4705
Crow Wing,NewsHopper,,2027 South Sixth Str Suite 105,Brainerd,MN,56401,218-772-0300
Dakota,Dakota County Tribune,,15322 Galaxie Ave #219,Apple Valley,MN,55124,952-894-1111
Dakota,Farmington Rosemount Independent Town Pages,,312 Oak Str,Farmington,MN,55024,651-301-7856
Dakota,Hastings Star Gazette,,745 Spiral Blvd,Hastings,MN,55033,651-319-4490
Dakota,Sun Thisweek Apple Valley/Rosemoun,,15322 Galaxie Ave #219,Apple Valley,MN,55124,952-894-1111
Dakota,Sun Thisweek Burnsville/Eagan,,15322 Galaxie Ave #219,Apple Valley,MN,55124,952-894-1111
Dakota,Sun Thisweek Farmington/Lakeville,,15322 Galaxie Ave #219,Apple Valley,MN,55124,952-894-1111
Dodge,Dodge Center Star Herald,PO Box 279,40 W Main Street,Dodge Center,MN,55927,507-374-6531
Dodge,Dodge County Independent Newspaper,,105 1st Ave NW,Kasson,MN,55944,507-634-7503
Dodge,News- Enterprise,,301 W Main Str,West Concord,MN,55985,507-527-2492
Douglas,Echo Press,,225 7th Ave E,Alexandria,MN,56308,320-763-3133
Douglas,Osakis Review,,225 7th Ave E,Alexandria,MN,56308,320-859-2143
Douglas,West Douglas County Record,PO Box 86,510 Central Ave N,Brandon,MN,56315,320-834-4924
Faribault,Faribault County Register,PO Bx 98,125 N Main Str,Faribault,MN,56013,507-526-7324
Faribault,Minnesota Lake Tribune,PO Box 214,227 Main Str N,Minnesota Lake,MN,56068-0214,507-462-3321
Faribault,Wells Mirror LLC,,40 W Franklin Str,Wells,MN,56097,507-553-3131
Fillmore,Bluff Country Reader,,137 W Fillmore Str #1,Preston,MN,55965,507-765-2752
Fillmore,Fillmore County Journal,,136 St Anthony Str,Preston,MN,55965,507-765-2151
Fillmore,News-Record,,350 Main Ave N #4,Harmony,MN,55939,507-886-2453
Fillmore,Republican Leader,,137 W Fillmore Str #1,Preston,MN,55965,507-765-2752
Fillmore,Spring Valley Tribune,,112 N Broadway Ave,Spring Valley,MN,55975,507-346-7365
Fillmore,Tri-County Record,,300 S Mill St,Rushford,MN,55971,507-864-7700
Freeborn,Albert Lea Tribune,PO Bx 60,808 W Front Str,Albert Lea,MN,56007,507-373-1411
Freeborn,The Alden Advance,,150 E Main Str,Alden,MN,56009,507-874-3440
Goodhue,Cannon Falls Beacon,Box 366,120 S 4th Str,Cannon Falls,MN,55009,507-263-3991
Goodhue,Kenyon Leader,,638 2nd Str,Kenyon,MN,55946-1334,507-789-6161
Goodhue,NEWS-RECORD,,225 Main Str,Zumbrota,MN,55992,507-732-7617
Goodhue,Red Wing Republican Eagle,,2760 N Service Drv,Red Wing,MN,55066,651-301-7856
Goodhue,The Free Press,,N6402 790th Str,Beldenville,WI,54003,800-533-1635
Goodhue,The Hiawatha Valley Shopper,,N6402 790th Str,Beldenville,WI,54003,800-533-1635
Grant,Grant County Herald,,35 Central Ave North,Elbow Lake,MN,56531,218-685-5326
Grant,Herman-Hoffman Tribune,Box E,408 Berlin Ave,Herman,MN,56248-0304,320-677-2229
Hennepin,American Jewish World,,4820 Minnetonka Blvd #104,Mpls,MN,55416,952-259-5234
Hennepin,Bloomington Sun-Current,,10917 Valley View Rd,Eden Prairie,MN,55344,952-392-6829
Hennepin,Brooklyn Center Sun-Post,,10917 Valley View Rd,Eden Prairie,MN,55344,952-392-6829
Hennepin,Brooklyn Park Sun-Post,,10917 Valley View Rd,Eden Prairie,MN,55344,952-392-6829
Hennepin,Champlin-Dayton Press,Box 280,33 2nd Str NE,Osseo,MN,55369,763-425-3323
Hennepin,City Pages LLC,,401 N 3rd Str,Mpls,MN,55401,612-372-3746
Hennepin,Crystal & Robbinsdale Sun-Post,,10917 Valley View Rd,Eden Prairie,MN,55344,952-392-6829
Hennepin,Eden Prairie News,,250 Prairie Ctr Drv #211,Eden Prairie,MN,55344,952-445-3333
Hennepin,Eden Prairie Sun-Current,,10917 Valley View Rd,Eden Prairie,MN,55344,952-392-6829
Hennepin,Edina Sun-Current,,10917 Valley View Rd,Eden Prairie,MN,55344,952-392-6829
Hennepin,Excelsior/Shorewood Sun-Sailor,,10917 Valley View Rd,Eden Prairie,MN,55344,952-392-6829
Hennepin,Finance and Commerce,,730 2nd Ave S 100 US Trust Bl,Mpls,MN,55402,612-333-4244
Hennepin,Hopkins & Minnetonka Sun-Sailo,,10917 Valley View Rd,Eden Prairie,MN,55344,952-392-6829
Hennepin,Lakeshore Weekly News,,1001 Twelve Oaks Ctr Drv #1017,Wayzata,MN,55391,952-473-0890
Hennepin,Minneapolis-St. Paul Business Journal,,120 S 6th Str #900,Mpls,MN,55402,612-288-2137
Hennepin,Minnesota Spokesman-Recorder,,3744 4th Ave S,Mpls,MN,55408,612-827-4021
Hennepin,New Hope & Golden Valley Sun-P,,10917 Valley View Rd,Eden Prairie,MN,55344,952-392-6829
Hennepin,Osseo-Maple Grove Press,,33 2nd Str NE,Osseo,MN,55369,763-425-3323
Hennepin,Plymouth Sun-Sailor,10917 Valley View Rd,,Eden Prairie,MN,55344,952-392-6829
Hennepin,Richfield Sun-Current,,10917 Valley View Road,Eden Prairie,MN,55344,952-392-6829
Hennepin,St Louis Park Sun-Sailor,,10917 Valley View Rd,Eden Prairie,MN,55344,952-392-6829
Hennepin,Star Tribune,,425 Portland Ave,Mpls,MN,55488,612-673-700
Hennepin,The AfricaPaper,,7030 Humboldt Ave N,Brooklyn Center,MN,55430,763-568-4335
Hennepin,The Laker,PO Box 5,8 Elm Str S,Waconia,MN,55387,952-442-6800
Hennepin,The Open U Inc.,,9270 Forest View Ln N,Maple Grove,MN,55369,612-207-0197
Hennepin,The Pioneer,PO Box 5,8 Elm Str S,Waconia,MN,55387,952-442-6800
Hennepin,Wayzata Orono & Long Lake Sun,,10917 Valley View Rd,Eden Prairie,MN,55344,952-392-6829
Houston,Houston County News,,401 N 3rd Str,La Crosse,WI,54601,608-791-8329
Houston,Spring Grove Herald,,115 W Main Str,Spring Grove,MN,55974,507-498-3868
Houston,The Caledonia Argus,,314 W Lincoln Str,Caledonia,MN,55921,507-724-3475
Houston,The Houston Banner,PO Box 326,205 S Ellsworth Str,Houston,MN,55943,507-896-2107
Hubbard,Northwoods Press,PO Box 28,108 Main Str,Nevis,MN,56467,218-652-3475
Hubbard,Park Rapids Enterprise,,203 Henrietta Ave N,Park Rapids,MN,56470,218-732-3364
Isanti,Isanti County News,,234 S Main Str,Cambridge,MN,55008,763-689-1981
Isanti,Isanti-Chisago County Star,,930 S Cleveland Str,Cambridge,MN,55008,763-689-1181
Itasca,Grand Rapids Herald Review,PO Box 220,301 1st Ave NW,Grand Rapids,MN,55744,218-326-6623
Itasca,Scenic Range NewsForum,PO Box 70,314 2nd str,Bovey,MN,55709,218-245-1422
Itasca,Western Itasca Review,,13 1st Str NE,Deer River,MN,56636,218-246-8533
Jackson,Jackson County Pilot,,310 2nd Str,Jackson,MN,56143-0208,507-847-3771
Jackson,Lakefield Standard,,403 Main Str,Lakefield,MN,56150-0249,507-662-5555
Jackson,Tri County News,Box 227,931 Second Ave,Heron Lake,MN,56137,507-793-2327
Kanabec,Kanabec County Times,,107 Park Str South,Mora,MN,55051,320-679-2661
Kandiyohi,Lakes Area Review,,106 Norwood Str SW,New London,MN,56273,320-354-2945
Kandiyohi,The Raymond-Prinsburg News,,204 Spicer Ave,Raymond,MN,56282-0157,320-967-4244
Kandiyohi,West Central Tribune,PO Box 839,2208 W Trott Ave,Willmar,MN,56201-2723,320-235-1150
Kittson,Kittson County Enterprise,,118 2nd Street South,Hallock,MN,56728,218-843-2868
Kittson,North Star News,,213 Main St South,Karlstad,MN,56732,218-436-2157
Koochiching,The Journal,,1602 Hwy 71,International Falls,MN,56649,218-285-7411
Lac Qui Parle,Dawson Sentinel,,674 Chestnut Str,Dawson,MN,56232,320-769-2497
Lac Qui Parle,The Western Guard,,216 6th Ave,Madison,MN,56256,320-598-7521
Lake,Lake County News-Chronicle,PO Box 158,109 Waterfront Drv,Two Harbors,MN,55616,218-834-2141
Lake,The North Shore Journal,,98 B Outer Drv,Silver Bay,MN,55614,218-226-3335
Lake of the Woods,Northern Light Region,,420 N Main Ave,Baudette,MN,56623,218-634-2700
Le Sueur,Elysian Enterprise,PO Box 119,106 Northshore Drv,Elysian,MN,56028,507-267-4323
Le Sueur,Lake Region Life,,115 S 3rd Str,Waterville,MN,56096,507-362-4495
Le Sueur,Le Center Leader,,62 E Minnesota Str,Le Center,MN,56057,507-357-2233
Le Sueur,Le Sueur News Herald,,101 Bridge Str #B,Le Sueur,MN,56058,507-665-3332
Le Sueur,Montgomery Messenger,,310 1st Str S,Montgomery,MN,56069-,507-364-8601
Le Sueur,The New Prague Times,PO Box 25,200 Main Str E,New Prague,MN,56071-2438,952-758-4435
Lincoln,Hendricks Pioneer,,202 S Main Plaza,Hendricks,MN,56136,507-247-5502
Lincoln,Ivanhoe Times,,409 N Norman Str PO Box 100,Ivanhoe,MN,56142,507-694-1246
Lincoln,Lake Benton Valley Journal,,120 N Center Str,Lake Benton,MN,56149,507-247-5502
Lincoln,Tyler Tribute,,124 N Tyler Str,Tyler,MN,56178,507-247-5502
Lyon,Balaton Press Tribune,,220 Central Ave S,Balaton,MN,56115,507-734-5421
Lyon,Marshall Independent,PO Box 411,508 W Main Str,Marshall,MN,56258-0411,507-537-1551
Lyon,Prairie Newsletter,,106 St Alban Str,Lynd,MN,56157,507-865-4404
Lyon,Tracy Headlight-Herald,,207 4th Str,Tracy,MN,56175,507-629-4300
Lyon,Tri-County News,,1 North Barstad Rd,Cottonwood,MN,56229,507-423-6239
McLeod,Hutchinson Leader,,170 Shady Ridge Rd NW #100,Hutchinson,MN,55350,320-587-5000
McLeod,McLeod County Chronicle,,716 E 10th Str,Glencoe,MN,55336,320-864-5518
Mahnomen,Mahnomen Pioneer,,207 Main Str N,Mahnomen,MN,56557,218-935-5296
Marshall,Grygla Eagle,,127 N Main Ave,Grygla,MN,56727,218-294-6220
Marshall,"Stephen/Argyle Messenger, Inc.",PO Box 48,586 Pacific Ave,Stephen,MN,56757,218-478-2210
Marshall,The Middle River Honker,,655 2nd Street N,Middle River,MN,56737,218-222-3501
Marshall,Warren Sheaf Publishing Co,,127 W Johnson Ave,Warren,MN,56762,218-745-5174
Martin,Fairmont Photo Press,,112 E 1st Str,Fairmont,MN,56031,507-238-9456
Martin,Martin County Star Inc,PO Box 820,30 N Main Str,Sherburn,MN,56171,507-764-6681
Martin,Sentinel,PO Bx 681,64 Downtown Plaza,Fairmont,MN,56031,507-235-3303
Martin,Truman Tribune,,118 E Ciro Str,Truman,MN,56088,507-776-2751
Meeker,The Litchfield Independent Rev,,217 N Sibley Ave,Litchfield,MN,55355-,320-693-3266
Mille Lacs,Mille Lacs County Times,,208 N Rum River Drv,Princeton,MN,55371,320-983-6111
Mille Lacs,Mille Lacs Messenger,,280 W Main Str,Isle,MN,56342,320-676-3123
Mille Lacs,Princeton Union-Eagle,,208 N Rum River Drv,Princeton,MN,55371-,763-389-1222
Morrison,Morrison County Record,,216 1st Str SE,Little Falls,MN,56345,320-632-2345
Mower,Austin Daily Herald,,310 2nd Str NE,Austin,MN,55912,507-434-8851
Mower,LeRoy/Southland Independent,,135 E Main Str,Le Roy,MN,55951,507-324-5325
Mower,Meadow Area News,PO Box 509,125 Main Str S,Grand Meadow,MN,55936,507-754-5486
Murray,Fulda Free Press,PO Box 439,118 N St Paul Ave,Fulda,MN,56131-0439,507-425-2303
Murray,MURRAY COUNTY ADVANTAGE,PO Box 439,118 N St Paul Ave,Fulda,MN,56131,507-425-2303
Murray,Murray County News,Box 288,2627 Broadway Ave,Slayton,MN,56172,507-836-8929
Murray,MURRAY COUNTY WHEEL-HERALD,,2734 Broadway Ave,Slayton,MN,56172,507-836-8726
Nicollet,Lafayette-Nicollet Ledger,PO Box 212,750 Main Ave,Lafayette,MN,56054,507-228-8985
Nicollet,St Peter Herald,,311 S Minnesota Ave,St Peter,MN,56082,507-931-4520
Nobles,Daily Globe,Box 639,300 11th Str,Worthington,MN,56187,507-376-9711
Nobles,Nobles County Review,Box 160,100 Maine,Adrian,MN,56110,507-483-2213
Norman,Norman County Index,,307 W Main Str,Ada,MN,56510-,218-784-2541
Norman,Twin Valley Times,PO Box 478,101 W Main Ave,Twin Valley,MN,56584,218-584-5195
Norman,Valley Journal,PO Bx 267,301 3rd Ave W,Halstad,MN,56548-0267,218-456-2133
Olmsted,Byron Review,,1011 Tompkins Drv NE,Byron,MN,55920,507-775-6180
Olmsted,Post-Bulletin Company,PO Box 6118,18 1st Ave SE,Rochester,MN,55903,507-285-7600
Olmsted,Stewartville Star,PO Box 35,102 N Main,Stewartville,MN,55976,507-533-4271
Otter Tail,Citizen's Advocate,PO Box 175,412 Douglas Ave,Henning,MN,56551,218-548-5585
Otter Tail,New York Mills Dispatch,PO Box 297,17 E Centennial 84 Dr # B,New York Mills,MN,56567,218-385-7720
Otter Tail,Pelican Rapids Press,,29 W Mill,Pelican Rapids,MN,56572-,218-863-1421
Otter Tail,Perham Focus,,222 2nd Ave SE,Perham,MN,56573,218-346-5900
Otter Tail,The Battle Lake Review,PO Bx 99,114 Lake Ave N,Battle Lake,MN,56515,218-864-5952
Otter Tail,The Daily Journal,,914 E Channing,Fergus Falls,MN,56537,218-736-7511
Otter Tail,The Parkers Prairie Independent LLC,PO Box 42,117 N Otter Ave,Parkers Prairie,MN,56361,218-338-2741
Pennington,Thief River Falls Times,,324 Main Ave N,Thief River Falls,MN,56701-0100,218-681-4450
Pine,Askov American,PO Box 275,6351 Main Str,Askov,MN,55704,320-838-3151
Pine,Hinckley News,PO Box 310,115 Main Str,Hinckley,MN,55037-0310,320-2452368
Pine,Pine City Pioneer,,405 2nd Ave SE,Pine City,MN,55063,763-689-1181
Pine,Pine County Courier,PO Box 230,414 Main,Sandstone,MN,55072-0230,320-245-2368
Pipestone,Edgerton Enterprise,831 Main Str,,Edgerton,MN,56128,507-442-6161
Pipestone,Jasper Journal,PO Box 277,115 2nd Str NE,Pipestone,MN,56164,507-348-4176
Pipestone,Pipestone County Star,PO Box 277,115 2nd Str NE,Pipestone,MN,56164,507-825-3333
Polk,Crookston Daily Times,,124 S Broadway,Crookston,MN,56716,218-281-2730
Polk,Erskine Echo,PO Box A,309 1st Str,Erskine,MN,56535-0016,218-687-3775
Polk,McIntosh Times,,115 Broadway NW,McIntosh,MN,56556,218-563-3585
Polk,THE EXPONENT,Box 285,406 3rd Str NW,East Grand Forks,MN,56721,218-230-8942
Polk,The Fertile Journal,PO Box 128,214 N Mill Str,Fertile,MN,56540,218-945-6120
Polk,The Thirteen Towns,,118 Johnson Ave N,Fosston,MN,56542,218-435-1313
Pope,Pope County Tribune,,14 1st Ave SE,Glenwood,MN,56334,320-634-4571
Pope,The Starbuck Times,Box 457,508 Main Str,Starbuck,MN,56381,320-239-2244
Ramsey,Bulletins,,2515 7th Ave E (Circ Dept),North St Paul,MN,55109,651-777-8800
Ramsey,East Side Review,,2515 7th Ave E Circ Dept,North St Paul,MN,55109,651-777-8800
Ramsey,Maplewood Review,,2515 7th Ave E (Circ Dept),North St Paul,MN,55109,651-777-8800
Ramsey,Moundsview/New Brighton Sun-Fo,10917 Valley View Rd,,Eden Prairie,MN,55344,952-392-6829
Ramsey,Oakdale Lake Elmo Review,,2515 7th Ave E Circ Dept,North St Paul,MN,55109,651-777-8800
Ramsey,Quad Community Press,,4779 Bloom Ave,White Bear Lake,MN,55110,651-407-1200
Ramsey,Ramsey County Review,,2515 7th Ave E (Circ Dept),North St Paul,MN,55109,651-777-8800
Ramsey,Roseville Review,,2515 7th Ave E Circ Dept,North St Paul,MN,55109,651-777-8800
Ramsey,SAINT PAUL PIONEER PRESS,,345 Cedar Str,St Paul,MN,55101,651-228-5007
Ramsey,Shoreview Press,,4799 Bloom Ave,White Bear Lake,MN,55110,651-407-1200
Ramsey,South West Review,,2515 7th Ave E Circ Dept,North St Paul,MN,55109,651-777-8800
Ramsey,St Paul Legal Ledger-Capitol R,,332 Minnesota Str #E-1432,St Paul,MN,55101-,651-222-0059
Ramsey,State Register,,660 Olive Str,St Paul,MN,55155,651-297-3000
Ramsey,The Citizen,,4779 Bloom Ave,White Bear Lake,MN,55110,651-407-1200
Ramsey,The Lowdown - Forest Lake,,4779 Bloom Ave,White Bear Lake,MN,55110,651-407-1200
Ramsey,The Lowdown - St. Croix Valley,,4779 Bloom Ave,White Bear Lake,MN,55110,651-407-1200
Ramsey,Vadnais Heights Press,,4799 Bloom Ave,White Bear Lake,MN,55110,651-407-1200
Ramsey,White Bear Press,,4779 Bloom Ave,White Bear Lake,MN,55110,651-407-1200
Ramsey,Woodbury-South Maplewood Revie,,2515 7th Ave E Circ Dept,North St Paul,MN,55109,651-777-8800
Red Lake,Red Lake Falls Gazette,PO Box 370,105 Main Str,Red Lake Falls,MN,56750,218-253-2594
Red Lake,The Oklee Herald,,Main Str & 2nd Ave,Oklee,MN,56742-0009,218-796-5181
Redwood,Lamberton News,PO Box 308,218 Main Str,Lamberton,MN,56152,507-752-7181
Redwood,Wabasso Standard,,1034 Cedar Street,Wabasso,MN,56293,507-342-5143
Renville,Bird Island Union,,750 Ash Ave,Bird Island,MN,55310,320-848-2248
Renville,News Mirror,,201 S Main Str,Hector,MN,55342,320-848-2248
Renville,Renville County Register,,110 NW Dupont,Renville,MN,56284,320-329-3324
Renville,Standard-Gazette & Messenger,Box 589,102 SE 1st Str,Fairfax,MN,55332,507-426-7235
Rice,Faribault Daily News,,514 Central Ave N,Faribault,MN,55021-4304,507-333-3110
Rice,Lonsdale Area News Review,,105 5th Ave NW,Lonsdale,MN,55046-9623,507-744-2551
Rice,Northfield News,,115 W 5th Str,Northfield,MN,55057,507-645-5615
Rock,Hills Crescent,,117 W Main Str,Luverne,MN,56156,507-283-2333
Rock,Rock County Star Herald,PO Bx 837,117 W Main,Luverne,MN,56156,507-283-2333
Roseau,Roseau Times Region Inc,,1307 3rd Str NE #109,Roseau,MN,56751,218-463-1521
Roseau,The Tribune,,192 Hill Str,Greenbush,MN,56726,218-782-2275
Roseau,THE WARROAD PIONEER,PO Box E,501 Lake Str NE,Warroad,MN,56763,218-386-3970
St. Louis,Chisholm Tribune Press,,131 W Lake Str #2,Chisholm,MN,55719,218-741-5544
St. Louis,Cook News-Herald,,9 Vermilion Drv,Cook,MN,55723,218-666-5944
St. Louis,Cook-Orr Timberjay,PO Box 184,126 1st St. S.W.,Cook,MN,55723,218-666-2342
St. Louis,DULUTH BUDGETEER NEWS,,424 W First Str,Duluth,MN,55802,218-723-5226
St. Louis,Duluth News Tribune,,424 W 1st Str,Duluth,MN,55802-1516,218-723-5281
St. Louis,Ely Echo,,15 E Chapman Str,Ely,MN,55731-1298,218-365-3141
St. Louis,ElyTimberjay,PO Box 718,40 N 1st Ave E,Ely,MN,55731,218-365-3114
St. Louis,Floodwood Forum,,522 Pine Str,Floodwood,MN,55736,218-476-2232
St. Louis,Floodwood News LLC,PO Box 286,522 Pine Str,Floodwood,MN,55736,218-476-2232
St. Louis,Hibbing Daily Tribune,,2142 1st Ave,Hibbing,MN,55746,218-941-5544
St. Louis,HOMETOWN FOCUS,,401 6th Ave N #1111,Virginia,MN,55792,218-741-0106
St. Louis,MESABI DAILY NEWS,,704 7th Ave S,Virginia,MN,55792,218-741-5544
St. Louis,Proctor Journal,,215 5th Str,Proctor,MN,55810-,218-624-3344
St. Louis,Range Times,PO Box 169,211 N Main,Biwabik,MN,55708,218-865-6265
St. Louis,Star Media,,4940 Lightning Drv,Hermantown,MN,55811,218-727-0419
St. Louis,The New Babbitt Weekly News,PO Box 321,7 Commerce Rd,Babbitt,MN,55706,218-827-8700
St. Louis,The Tower News,,510 Main Str,Tower,MN,55790,218-753-7777
St. Louis,Tower-Soudan Timberjay,,414 Main Str,Tower,MN,55790,218-753-2950
Scott,Belle Plaine Herald,PO Box 7,113 E Main St,Belle Plaine,MN,56011,952-873-2261
Scott,Jordan Independent,,109 Rice Str,Jordan,MN,55352,952-445-3333
Scott,Prior Lake American,,327 Marschall Rd,Shakopee,MN,55379,952-445-3333
Scott,Savage Pacer,,327 Marschall Rd,Shakopee,MN,55379,952-445-3333
Scott,Shakopee Valley News,PO Box 8,327 Marschall Rd,Shakopee,MN,55379,952-445-3333
Sherburne,Star News,,506 Freeport Ave #A,Elk River,MN,55330,763-441-3500
Sherburne,The Citizen,,14054 Bank Str,Becker,MN,55308,763-261-5880
Sherburne,West Sherburne Tribune,Bx 276,29 Lake Street S,Big Lake,MN,55309,763-263-3602
Sibley,Arlington Enterprise,,402 W Alden,Arlington,MN,55307,507-964-5547
Sibley,Henderson Independent,PO Box 8,407 Main Str,Henderson,MN,56044,507-248-3223
Sibley,The Gaylord Hub,,234 4th Str,Gaylord,MN,55334,507-237-2476
Sibley,Winthrop News,PO Box L,110 N Carver,Winthrop,MN,55396,507-647-5357
Stearns,Albany Enterprise,,561 Railroad Ave,Albany,MN,56307,320-845-2700
Stearns,Bonanza Valley Voice,Box 280,131 Central Ave N,Brooten,MN,56316,320-346-2400
Stearns,Dairy Star,,522 Sinclair Lewis Ave,Sauk Centre,MN,56378,320-352-6303
Stearns,Eden Valley - Watkins Voice,,211 Washburne Ave,Paynesville,MN,56362,320-243-3772
Stearns,Melrose Beacon,,408 E Main Str,Melrose,MN,56352,320-256-3240
Stearns,Sartell Newsleader,PO Box 324,32 1st Ave NW,St Joseph,MN,56374,320-363-7741
Stearns,Sauk Centre Herald,,522 Sinclair Lewis Ave,Sauk Centre,MN,56378,320-352-6577
Stearns,St Cloud Times,,3000 7th Str N,St Cloud,MN,56303-0768,320-255-8700
Stearns,St Joseph Newsleader,PO Box 324,32 1st Ave NW,St Joseph,MN,56374,320-363-7741
Stearns,The Cold Spring Record,,403 W Wind Ct,Cold Spring,MN,56320,320-685-8621
Stearns,The Observer,Box 279,303 Washburn Ave,Belgrade,MN,56312,320-254-8250
Stearns,The Paynesville Press,PO Box 54,211 Washburne Ave,Paynesville,MN,56362,320-243-3772
Stearns,Tri-County News,,70 S Main Str,Kimball,MN,55353,320-398-5000
Steele,Owatonna People's Press,,135 W Pearl Str,Owatonna,MN,55060,507-451-2840
Steele,The Leader,,135 W Pearl Str,Owatonna,MN,55060-2316,507-444-2367
Steele,The Times,,411 E Main Str,Blooming Prairie,MN,55917,507-583-4431
Stevens,Chokio Review,PO Box 96,121 Main Str,Chokio,MN,55621-0096,320-324-2405
Stevens,Hancock Record,,607 Pacific Ave,Morris,MN,56267,320-392-5527
Stevens,Morris Sun Tribune,,607 Pacific Ave,Morris,MN,56267,320-589-2525
Swift,Kerkhoven Banner,,1001 Atlantic Ave,Kerkhoven,MN,56252,320-264-7071
Swift,Swift County Monitor-News,,101 12th Str S,Benson,MN,56215,320-843-4111
Swift,The Appleton Press,,241 W Snelling Ave,Appleton,MN,56208,320-289-1323
Todd,Browerville Blade,,609 N Main Str,Browerville,MN,56438,320-594-2911
Todd,Independent News Herald,,310 W Main Str,Clarissa,MN,56440,218-756-2131
Todd,Long Prairie Leader,,21 3rd Str S,Long Prairie,MN,56347,320-732-2151
Todd,Staples World,,224 4th Str NE,Staples,MN,56479,218-894-1112
Traverse,Gazette Publishing Inc,,1114 Broadway Ave,Wheaton,MN,56296,320-563-8146
Traverse,The Wheaton Gazette,,1114 Broadway,Wheaton,MN,56296,320-563-8146
Wabasha,Lake City Graphic,,111 S 8th Str,Lake City,MN,55041,651-345-3316
Wabasha,Plainview News,PO Box 457,409 W Broadway,Plainview,MN,55964,507-534-3121
Wabasha,Wabasha County Herald,,200 Industrial Ct,Wabasha,MN,55981,651-565-3368
Wadena,The Review Messenger,PO Box 309,112 Minnesota Ave W,Sebeka,MN,56477-0309,218-837-5558
Wadena,Verndale Sun,,PO Box E,Verndale,MN,56481,218-445-6397
Wadena,Wadena Pioneer Journal,,314 S Jefferson,Wadena,MN,56482,218-631-2561
Waseca,NRHEG Star Eagle,PO Box 248,128 N Broadway,New Richland,MN,56072-,507-463-8112
Waseca,Waseca County News,,213 2nd Str NW,Waseca,MN,56093,507-835-3380
Washington,Country Messenger,,108 S Cascade,Osecola,WI,54020,715-294-2314
Washington,Forest Lake Times,,880 SW 15th Str,Forest Lake,MN,55025,651-464-4601
Washington,South Washington County Bulletin,,7584 80th Str S,Cottage Grove,MN,55016,651-319-4490
Washington,Stillwater Gazette,,1931 Curve Crest Blvd,Stillwater,MN,55082,952-392-6829
Washington,Woodbury Bulletin,,8420 City Centre Drv,Woodbury,MN,55125,651-319-4490
Watonwan,Madelia Times-Messenger,,112 W Main Str,Madelia,MN,56062,507-642-3636
Watonwan,St James Plaindealer,PO Box 67,604 1st Ave S,St James,MN,56081-0067,507-375-3161
Watonwan,The Hanska Herald,,112 W Main Str,Madelia,MN,56062,507-642-3636
Wilkin,Wahpeton Daily News,,601 Dakota Ave,Wahpeton,ND,58075,701-642-8585
Winona,Lewiston Journal,PO Box 617,924 Whitewater Ave,St Charles,MN,55972,507-523-2119
Winona,St Charles Press,PO Box 617,924 Whitewater Ave,St Charles,MN,55972,507-932-3663
Winona,Winona Daily News,,902 E 2nd Str #110,Winona,MN,55987,507-453-3500
Winona,Winona Post,,64 E 2nd Str,Winona,MN,55987,507-452-1262
Wright,Annandale Advocate,,73 Oak Ave S,Annandale,MN,55302,320-274-3052
Wright,Clearwater Tribune,Box 292,445 Main Str,Clearwater,MN,55320,320-558-2037
Wright,Dassel-Cokato Enterprise Dispatch,,185 3rd Str SW,Cokato,MN,55321,320-485-2535
Wright,Delano Herald Journal,,701 Babcock Blvd E #110,Delano,MN,55328,320-85-2535
Wright,Herald Journal,,817 6th Str,Howard Lake,MN,55349,320-485-2535
Wright,Maple Lake Messenger,,218 Division Str W,Maple Lake,MN,55358,320-963-3813
Wright,Monticello Times,PO Box 420,540 Walnut Str Towne Centre,Monticello,MN,55362,952-392-6829
Wright,North Crow River News,,33 2nd Str NE,Osseo,MN,55369,763-424-7373
Wright,South Crow River News/ The Delano Eagle,Box 280,33 2nd Street NE,Osseo,MN,55369,763-425-3323
Wright,Wright County Journal-Press,,108 Central Ave,Buffalo,MN,55313,763-682-1221
Yellow Medicine,Granite Falls-Clarkfield Advoc,,713 Prentice Str,Granite Falls,MN,56241,320-564-2126
Yellow Medicine,The Canby News,,120 Saint Olaf Ave N,Canby,MN,56220,507-223-5303
